0 FENGYUN 1C DEB
1 33713U 99025DHA 13282.34873386  .00007988  00000-0  14276-2 0  4809
2 33713 099.1079 122.5685 0207750 245.4178 112.5242 14.54114643299825
0 FENGYUN 1C DEB
1 33713U 99025DHA 13283.79375143  .00007805  00000-0  13946-2 0  4819
2 33713 099.1081 124.1418 0207796 241.0589 116.9627 14.54126721300039
0 FENGYUN 1C DEB
1 33713U 99025DHA 13285.78923083  .00006278  00000-0  11240-2 0  4821
2 33713 099.1078 126.3141 0207756 235.0280 123.1252 14.54148672300324
0 FENGYUN 1C DEB
1 33713U 99025DHA 13289.02321985  .00009440  00000-0  16810-2 0  4838
2 33713 099.1066 129.8351 0207760 225.2511 133.1614 14.54197606300790
0 FENGYUN 1C DEB
1 33713U 99025DHA 13291.01860830  .00007958  00000-0  14183-2 0  4841
2 33713 099.1059 132.0075 0207760 219.2186 139.3800 14.54228156301085
0 FENGYUN 1C DEB
1 33713U 99025DHA 13293.35797886  .00008933  00000-0  15891-2 0  4852
2 33713 099.1055 134.5541 0207742 212.1236 146.7161 14.54261877301421
0 FENGYUN 1C DEB
1 33713U 99025DHA 13295.83490070  .00010625  00000-0  18857-2 0  4869
2 33713 099.1060 137.2514 0207667 204.6837 154.4310 14.54302593301788
